{
  "type": "FeatureCollection",
  "features": [
    {
      "type": "Feature",
      "properties": {
        "norad_id": 66419,
        "name": "HULIANWANG DIGUI 13H",
        "group": "last-30-days",
        "lat": -28.220836038777108,
        "lon": -38.76195576331566,
        "alt_km": 450.28998748235335,
        "timestamp": "2025-12-10T09:57:43.487726+00:00",
        "meta_object_name": "HULIANWANG DIGUI 13H",
        "meta_object_id": "2025-258H",
        "meta_epoch": "2025-12-08T14:58:00.814656",
        "meta_mean_motion": 15.39596954,
        "meta_eccentricity": 0.00012505,
        "meta_inclination": 53.1596,
        "meta_ra_of_asc_node": 125.9585,
        "meta_arg_of_pericenter": 98.9072,
        "meta_mean_anomaly": 261.2074,
        "meta_ephemeris_type": 0,
        "meta_classification_type": "U",
        "meta_norad_cat_id": 66419,
        "meta_element_set_no": 999,
        "meta_rev_at_epoch": 804,
        "meta_bstar": 0.0024249346,
        "meta_mean_motion_dot": 0.00097774,
        "meta_mean_motion_ddot": 0,
        "tle_line1": "1 66419U 25258H   25342.62362054  .00097774  00000+0  24249-2 0  9998",
        "tle_line2": "2 66419  53.1596 125.9585 0001250  98.9072 261.2074 15.39596954  8045"
      },
      "geometry": {
        "type": "Point",
        "coordinates": [
          -38.76195576331566,
          -28.220836038777108
        ]
      }
    },
    {
      "type": "Feature",
      "properties": {
        "norad_id": 66420,
        "name": "HULIANWANG DIGUI 13J",
        "group": "last-30-days",
        "lat": 43.7849597748112,
        "lon": 38.18750203313752,
        "alt_km": 817.9652001859677,
        "timestamp": "2025-12-10T09:57:43.487740+00:00",
        "meta_object_name": "HULIANWANG DIGUI 13J",
        "meta_object_id": "2025-258J",
        "meta_epoch": "2025-12-08T20:17:06.442944",
        "meta_mean_motion": 14.20810839,
        "meta_eccentricity": 0.00037732,
        "meta_inclination": 50.0024,
        "meta_ra_of_asc_node": 278.346,
        "meta_arg_of_pericenter": 347.1433,
        "meta_mean_anomaly": 12.9382,
        "meta_ephemeris_type": 0,
        "meta_classification_type": "U",
        "meta_norad_cat_id": 66420,
        "meta_element_set_no": 999,
        "meta_rev_at_epoch": 409,
        "meta_bstar": 0.00037258505,
        "meta_mean_motion_dot": 6.52e-06,
        "meta_mean_motion_ddot": 0,
        "tle_line1": "1 66420U 25258J   25342.84521346  .00000652  00000+0  37259-3 0  9990",
        "tle_line2": "2 66420  50.0024 278.3460 0003773 347.1433  12.9382 14.20810839  4090"
      },
      "geometry": {
        "type": "Point",
        "coordinates": [
          38.18750203313752,
          43.7849597748112
        ]
      }
    },
    {
      "type": "Feature",
      "properties": {
        "norad_id": 66421,
        "name": "CZ-12 R/B",
        "group": "last-30-days",
        "lat": -49.55580906323228,
        "lon": 168.15899249674723,
        "alt_km": 712.742797258783,
        "timestamp": "2025-12-10T09:57:43.487752+00:00",
        "meta_object_name": "CZ-12 R/B",
        "meta_object_id": "2025-258K",
        "meta_epoch": "2025-12-09T12:47:21.717600",
        "meta_mean_motion": 14.42322755,
        "meta_eccentricity": 0.00645356,
        "meta_inclination": 49.9958,
        "meta_ra_of_asc_node": 271.8629,
        "meta_arg_of_pericenter": 237.8784,
        "meta_mean_anomaly": 121.5862,
        "meta_ephemeris_type": 0,
        "meta_classification_type": "U",
        "meta_norad_cat_id": 66421,
        "meta_element_set_no": 999,
        "meta_rev_at_epoch": 426,
        "meta_bstar": 0.00015068133,
        "meta_mean_motion_dot": 3.43e-06,
        "meta_mean_motion_ddot": 0,
        "tle_line1": "1 66421U 25258K   25343.53289025  .00000343  00000+0  15068-3 0  9994",
        "tle_line2": "2 66421  49.9958 271.8629 0064535 237.8784 121.5862 14.42322755  4264"
      },
      "geometry": {
        "type": "Point",
        "coordinates": [
          168.15899249674723,
          -49.55580906323228
        ]
      }
    },
    {
      "type": "Feature",
      "properties": {
        "norad_id": 66422,
        "name": "STARLINK-35617",
        "group": "last-30-days",
        "lat": -3.3023280932011523,
        "lon": 57.95576035104619,
        "alt_km": 444.1131901254257,
        "timestamp": "2025-12-10T09:57:43.487765+00:00",
        "meta_object_name": "STARLINK-35617",
        "meta_object_id": "2025-259A",
        "meta_epoch": "2025-12-09T12:12:10.263168",
        "meta_mean_motion": 15.40777762,
        "meta_eccentricity": 0.00010396,
        "meta_inclination": 43.0035,
        "meta_ra_of_asc_node": 66.7321,
        "meta_arg_of_pericenter": 134.0359,
        "meta_mean_anomaly": 226.0583,
        "meta_ephemeris_type": 0,
        "meta_classification_type": "U",
        "meta_norad_cat_id": 66422,
        "meta_element_set_no": 999,
        "meta_rev_at_epoch": 566,
        "meta_bstar": 0.0020546289,
        "meta_mean_motion_dot": 0.00086728,
        "meta_mean_motion_ddot": 0,
        "tle_line1": "1 66422U 25259A   25343.50845212  .00086728  00000+0  20546-2 0  9996",
        "tle_line2": "2 66422  43.0035  66.7321 0001039 134.0359 226.0583 15.40777762  5669"
      },
      "geometry": {
        "type": "Point",
        "coordinates": [
          57.95576035104619,
          -3.3023280932011523
        ]
      }
    },
    {
      "type": "Feature",
      "properties": {
        "norad_id": 66423,
        "name": "STARLINK-35618",
        "group": "last-30-days",
        "lat": 5.2055700052345495,
        "lon": 67.08455940803452,
        "alt_km": 442.8212275469259,
        "timestamp": "2025-12-10T09:57:43.487776+00:00",
        "meta_object_name": "STARLINK-35618",
        "meta_object_id": "2025-259B",
        "meta_epoch": "2025-12-09T13:42:17.557056",
        "meta_mean_motion": 15.40793706,
        "meta_eccentricity": 0.000261,
        "meta_inclination": 43.0016,
        "meta_ra_of_asc_node": 66.3405,
        "meta_arg_of_pericenter": 255.983,
        "meta_mean_anomaly": 104.0736,
        "meta_ephemeris_type": 0,
        "meta_classification_type": "U",
        "meta_norad_cat_id": 66423,
        "meta_element_set_no": 999,
        "meta_rev_at_epoch": 567,
        "meta_bstar": 0.0023853,
        "meta_mean_motion_dot": 0.00100982,
        "meta_mean_motion_ddot": 0,
        "tle_line1": "1 66423U 25259B   25343.57103654  .00100982  00000+0  23853-2 0  9994",
        "tle_line2": "2 66423  43.0016  66.3405 0002610 255.9830 104.0736 15.40793706  5673"
      },
      "geometry": {
        "type": "Point",
        "coordinates": [
          67.08455940803452,
          5.2055700052345495
        ]
      }
    },
    {
      "type": "Feature",
      "properties": {
        "norad_id": 66424,
        "name": "STARLINK-35588",
        "group": "last-30-days",
        "lat": 13.424098564731908,
        "lon": 76.28347306707423,
        "alt_km": 441.2355579821624,
        "timestamp": "2025-12-10T09:57:43.487787+00:00",
        "meta_object_name": "STARLINK-35588",
        "meta_object_id": "2025-259C",
        "meta_epoch": "2025-12-09T15:12:25.909344",
        "meta_mean_motion": 15.40774262,
        "meta_eccentricity": 9.5e-06,
        "meta_inclination": 42.9991,
        "meta_ra_of_asc_node": 65.9476,
        "meta_arg_of_pericenter": 48.3818,
        "meta_mean_anomaly": 311.7047,
        "meta_ephemeris_type": 0,
        "meta_classification_type": "U",
        "meta_norad_cat_id": 66424,
        "meta_element_set_no": 999,
        "meta_rev_at_epoch": 568,
        "meta_bstar": 0.0021068,
        "meta_mean_motion_dot": 0.00088955,
        "meta_mean_motion_ddot": 0,
        "tle_line1": "1 66424U 25259C   25343.63363321  .00088955  00000+0  21068-2 0  9992",
        "tle_line2": "2 66424  42.9991  65.9476 0000095  48.3818 311.7047 15.40774262  5681"
      },
      "geometry": {
        "type": "Point",
        "coordinates": [
          76.28347306707423,
          13.424098564731908
        ]
      }
    },
    {
      "type": "Feature",
      "properties": {
        "norad_id": 66425,
        "name": "STARLINK-35555",
        "group": "last-30-days",
        "lat": 21.40502403944883,
        "lon": 86.28795866427551,
        "alt_km": 440.40709166687884,
        "timestamp": "2025-12-10T09:57:43.487798+00:00",
        "meta_object_name": "STARLINK-35555",
        "meta_object_id": "2025-259D",
        "meta_epoch": "2025-12-09T15:09:11.364192",
        "meta_mean_motion": 15.40774478,
        "meta_eccentricity": 4.23e-05,
        "meta_inclination": 42.9991,
        "meta_ra_of_asc_node": 65.9288,
        "meta_arg_of_pericenter": 227.84,
        "meta_mean_anomaly": 132.2421,
        "meta_ephemeris_type": 0,
        "meta_classification_type": "U",
        "meta_norad_cat_id": 66425,
        "meta_element_set_no": 999,
        "meta_rev_at_epoch": 568,
        "meta_bstar": 0.0015088,
        "meta_mean_motion_dot": 0.00063403,
        "meta_mean_motion_ddot": 0,
        "tle_line1": "1 66425U 25259D   25343.63138153  .00063403  00000+0  15088-2 0  9992",
        "tle_line2": "2 66425  42.9991  65.9288 0000423 227.8400 132.2421 15.40774478  5680"
      },
      "geometry": {
        "type": "Point",
        "coordinates": [
          86.28795866427551,
          21.40502403944883
        ]
      }
    }
  ]
}